[Satellite]
VERSION=1.1
NAME=SL-16 R/B
NICKNAME=SL-16 R/B
TLE1=1 25407U 98045B   19317.57717701  .00000203  00000-0  12778-3 0  9993
TLE2=2 25407  71.0121 353.3855 0009730 298.1248  61.8891 14.15792073100651
STATUS=0
